0 SL-8 R/B
1 18986U 88023B   13282.78858163  .00000023  00000-0  77188-5 0   177
2 18986 082.9536 325.5616 0042079 039.9791 078.3407 13.78476758285139
0 SL-8 R/B
1 18986U 88023B   13287.20538462  .00000009  00000-0 -62247-5 0   193
2 18986 082.9531 322.2755 0041799 027.5971 036.7810 13.78477059285741
0 SL-8 R/B
1 18986U 88023B   13289.53736281 -.00000006  00000-0 -20761-4 0   204
2 18986 082.9528 320.5403 0041639 021.0858 089.2267 13.78476954286062
0 SL-8 R/B
1 18986U 88023B   13291.12259976 -.00000005  00000-0 -19528-4 0   212
2 18986 082.9527 319.3607 0041540 016.6175 036.0103 13.78476915286286
0 SL-8 R/B
1 18986U 88023B   13292.13949347  .00000006  00000-0 -91263-5 0   220
2 18986 082.9525 318.6039 0041445 013.8091 042.3173 13.78476848286423
0 SL-8 R/B
1 18986U 88023B   13293.15059988 -.00000012  00000-0 -27300-4 0   235
2 18986 082.9525 317.8514 0041396 010.9308 019.9893 13.78476589286562
0 SL-8 R/B
1 18986U 88023B   13294.17347339 -.00000020  00000-0 -34387-4 0   241
2 18986 082.9524 317.0901 0041341 008.0253 056.0500 13.78476344286702
0 SL-8 R/B
1 18986U 88023B   13295.19015921 -.00000026  00000-0 -40596-4 0   259
2 18986 082.9523 316.3334 0041262 005.1626 061.3782 13.78476127286842
